ZHONGXING-1E            
1 53813U 22112A   26164.06511377 -.00000136  00000+0  00000+0 0  9996
2 53813   0.0495 236.4048 0000881  81.3512  48.4565  1.00272654 13805
SES-20                  
1 53960U 22123A   26164.26164911 -.00000088  00000+0  00000+0 0  9997
2 53960   0.0353  73.5570 0001748  22.9864 156.1287  1.00268844 13494
SES-21                  
1 53961U 22123B   26164.27669352  .00000082  00000+0  00000+0 0  9991
2 53961   0.0254  32.4584 0000961  48.3404 149.3953  1.00269846  7177
GALAXY 33 (G-33)        
1 54026U 22128A   26164.26887023  .00000091  00000+0  00000+0 0  9995
2 54026   0.0101 324.9138 0001625 120.6406 139.8325  1.00270679 13708
GALAXY 34 (G-34)        
1 54027U 22128B   26163.95197634  .00000072  00000+0  00000+0 0  9992
2 54027   0.0151  10.9191 0001425  95.2882   8.7862  1.00272983 13876
ANGOSAT 2               
1 54033U 22131A   26164.05358706  .00000149  00000+0  00000+0 0  9999
2 54033   0.0338  82.1779 0001096  25.4033 196.0924  1.00272710 13430
EUTELSAT HOTBIRD 13F    
1 54048U 22134A   26164.12286395  .00000100  00000+0  00000+0 0  9997
2 54048   0.0466 293.4232 0002068  62.4091 322.8520  1.00272500 13331
LDPE-2                  
1 54219U 22144A   26164.30453927  .00000139  00000+0  00000+0 0  9997
2 54219   5.6034  63.6824 0001842 104.9808  41.4726  1.00530394 11804
EUTELSAT HOTBIRD 13G    
1 54225U 22146A   26164.12286395  .00000100  00000+0  00000+0 0  9997
2 54225   0.0484 228.8740 0002006 317.4684 132.3379  1.00272040  7425
ZHONGXING-19            
1 54230U 22148A   26164.22386773 -.00000069  00000+0  00000+0 0  9992
2 54230   0.0178 326.8140 0002233 142.1588  36.3539  1.00271211 13340
GALAXY 31 (G-31)        
1 54243U 22153A   26164.26035431  .00000000  00000+0  00000+0 0  9992
2 54243   0.0184 359.4063 0000974  77.8444 157.0443  1.00269991  7094
GALAXY 32 (G-32)        
1 54244U 22153B   26163.46063806 -.00000159  00000+0  00000+0 0  9997
2 54244   0.0112  15.0853 0002028  18.1712 302.3687  1.00271325 13092
EUTELSAT 10B            
1 54259U 22157A   26163.90837450  .00000081  00000+0  00000+0 0  9993
2 54259   0.0642 100.4121 0001561  14.6254 123.2149  1.00267226 12981
GALAXY 35 (G-35)        
1 54741U 22170A   26164.24445395 -.00000150  00000+0  00000+0 0  9993
2 54741   0.0023 246.3782 0001796 198.3388 171.7482  1.00270405 12858
GALAXY 36 (G-36)        
1 54742U 22170B   26164.24523395 -.00000173  00000+0  00000+0 0  9996
2 54742   0.0402 126.0104 0002506 316.4756 178.3688  1.00271339 12739
METEOSAT-12 (MTG-I1)    
1 54743U 22170C   26164.26282509  .00000004  00000+0  00000+0 0  9990
2 54743   0.7338  22.2696 0003166  72.2391 261.2665  1.00271868 12939
SHIJIAN-23 (SJ-23)      
1 55131U 23002A   26163.73367405 -.00000215  00000+0  00000+0 0  9992
2 55131   3.7055  78.3671 0003804 272.1429 325.7246  1.00088656 12467
APSTAR-6E               
1 55239U 23005A   26161.66423256 -.00000300  00000+0  00000+0 0  9996
2 55239   0.0249 253.3859 0001043 305.6629  73.1073  1.00270607 18626
USA 342                 
1 55263U 23008A   26161.27337965  .00000000  00000+0  00000+0 0  9990
2 55263   0.0036  23.3608 0000235 273.9776  83.6406  1.00272706 12448
LDPE-3A                 
1 55264U 23008B   26164.24445395 -.00000007  00000+0  00000+0 0  9996
2 55264   2.3371  81.7110 0001097  64.2180 110.5979  0.99144917 11778
ELEKTRO-L 4             
1 55506U 23016A   26163.81405245 -.00000044  00000+0  00000+0 0  9997
2 55506   0.0725 170.6663 0000710   4.6056 184.7374  1.00270500 12298
AMAZONAS NEXUS          
1 55508U 23017A   26164.25077837 -.00000270  00000+0  00000+0 0  9992
2 55508   0.0370  34.0037 0004989  31.0196 225.8361  1.00271164  7008
ZHONGXING-26            
1 55686U 23023A   26163.28959263 -.00000338  00000+0  00000+0 0  9995
2 55686   0.0704  72.0144 0003340  12.8819  45.0683  1.00273412 12188
LUCH-5X (OLYMP-K 2)     
1 55841U 23031A   26163.70484747  .00000047  00000+0  00000+0 0  9990
2 55841   0.0260  57.9527 0000649 171.9697 346.8348  1.00273743 11899
GAOFEN-13 02            
1 55912U 23036A   26164.22475360 -.00000206  00000+0  00000+0 0  9991
2 55912   1.0199   0.5875 0004143 336.0639 154.1067  1.00271282 12056
SES-18                  
1 55970U 23038A   26164.26164911 -.00000089  00000+0  00000+0 0  9997
2 55970   0.0207 292.9238 0000254   9.2101 310.5436  1.00271067 12061
SES-19                  
1 55971U 23038B   26164.02228935  .00000101  00000+0  00000+0 0  9993
2 55971   0.0109 333.5368 0001475 112.5219  48.4227  1.00272725 12059
INTELSAT 40E (IS-40E)   
1 56174U 23052A   26163.53189741 -.00000160  00000+0  00000+0 0  9997
2 56174   0.0197  34.9539 0001820  92.3118 234.0837  1.00271965 11774
VIASAT-3 F1             
1 56370U 23060A   26163.88881397  .00000000  00000+0  00000+0 0  9990
2 56370   0.0239 332.5417 0000831  92.2317  67.4368  1.00269634 11397
ARCTURUS                
1 56371U 23060B   26164.13011318 -.00000052  00000+0  00000+0 0  9996
2 56371   2.7655  79.9988 0002444  47.0093 253.7663  1.00272218 11418
GS-1                    
1 56372U 23060C   26159.64661679 -.00000208  00000+0  00000+0 0  9991
2 56372   2.7050  79.9310 0004125 279.9950 219.1575  1.00277054  7453
BEIDOU-3 G4             
1 56564U 23066A   26164.29062314 -.00000268  00000+0  00000+0 0  9994
2 56564   0.4916 330.4029 0004290 181.8988 353.9188  1.00275055 11359
